{"fetched_at":"2026-07-17T17:38:05.106Z","source":"https://celestrak.org/NORAD/elements/gp.php?NAME=BRO&FORMAT=JSON","constellation":"unseenlabs","records":[{"OBJECT_NAME":"BRO-1","OBJECT_ID":"2019-054A","EPOCH":"2026-07-17T03:23:45.511872","CLASSIFICATION_TYPE":"U","MEAN_MOTION":16.26287832,"ECCENTRICITY":0.00111353,"INCLINATION":44.9766,"RA_OF_ASC_NODE":106.6168,"ARG_OF_PERICENTER":229.2884,"MEAN_ANOMALY":130.707,"EPHEMERIS_TYPE":0,"NORAD_CAT_ID":44495,"ELEMENT_SET_NO":999,"REV_AT_EPOCH":38454,"BSTAR":0.00077422719,"MEAN_MOTION_DOT":0.02671863,"MEAN_MOTION_DDOT":0.000010185875},{"OBJECT_NAME":"BRO-5","OBJECT_ID":"2022-002CF","EPOCH":"2026-07-17T07:20:03.586848","CLASSIFICATION_TYPE":"U","MEAN_MOTION":15.48959186,"ECCENTRICITY":0.00056088,"INCLINATION":97.2981,"RA_OF_ASC_NODE":272.2741,"ARG_OF_PERICENTER":195.439,"MEAN_ANOMALY":164.6691,"EPHEMERIS_TYPE":0,"NORAD_CAT_ID":51061,"ELEMENT_SET_NO":999,"REV_AT_EPOCH":25091,"BSTAR":0.00032033493,"MEAN_MOTION_DOT":0.00017239,"MEAN_MOTION_DDOT":0},{"OBJECT_NAME":"BRO-6","OBJECT_ID":"2022-047AE","EPOCH":"2026-07-17T06:07:13.112832","CLASSIFICATION_TYPE":"U","MEAN_MOTION":15.52679955,"ECCENTRICITY":0.00028169,"INCLINATION":97.3387,"RA_OF_ASC_NODE":289.9333,"ARG_OF_PERICENTER":298.3954,"MEAN_ANOMALY":61.7015,"EPHEMERIS_TYPE":0,"NORAD_CAT_ID":52422,"ELEMENT_SET_NO":999,"REV_AT_EPOCH":23581,"BSTAR":0.00044190043,"MEAN_MOTION_DOT":0.00027197,"MEAN_MOTION_DDOT":0},{"OBJECT_NAME":"BRO-8","OBJECT_ID":"2023-001C","EPOCH":"2026-07-17T03:11:14.955072","CLASSIFICATION_TYPE":"U","MEAN_MOTION":15.50831811,"ECCENTRICITY":0.00046698,"INCLINATION":97.318,"RA_OF_ASC_NODE":263.7844,"ARG_OF_PERICENTER":32.6887,"MEAN_ANOMALY":327.4653,"EPHEMERIS_TYPE":0,"NORAD_CAT_ID":55011,"ELEMENT_SET_NO":999,"REV_AT_EPOCH":19684,"BSTAR":0.00037564042,"MEAN_MOTION_DOT":0.0002162,"MEAN_MOTION_DDOT":0},{"OBJECT_NAME":"BRO-11","OBJECT_ID":"2023-174J","EPOCH":"2026-07-17T06:00:28.668384","CLASSIFICATION_TYPE":"U","MEAN_MOTION":15.27602608,"ECCENTRICITY":0.00120094,"INCLINATION":97.3896,"RA_OF_ASC_NODE":274.8216,"ARG_OF_PERICENTER":101.4199,"MEAN_ANOMALY":258.839,"EPHEMERIS_TYPE":0,"NORAD_CAT_ID":58264,"ELEMENT_SET_NO":999,"REV_AT_EPOCH":14934,"BSTAR":0.00010458053,"MEAN_MOTION_DOT":0.00002753,"MEAN_MOTION_DDOT":0},{"OBJECT_NAME":"BRO-13","OBJECT_ID":"2024-043K","EPOCH":"2026-07-17T07:29:48.630624","CLASSIFICATION_TYPE":"U","MEAN_MOTION":14.96655434,"ECCENTRICITY":0.00073947,"INCLINATION":97.8531,"RA_OF_ASC_NODE":329.4328,"ARG_OF_PERICENTER":253.7188,"MEAN_ANOMALY":106.322,"EPHEMERIS_TYPE":0,"NORAD_CAT_ID":59107,"ELEMENT_SET_NO":999,"REV_AT_EPOCH":12912,"BSTAR":0.00009965508,"MEAN_MOTION_DOT":0.00001077,"MEAN_MOTION_DDOT":0},{"OBJECT_NAME":"BRO-12","OBJECT_ID":"2024-043L","EPOCH":"2026-07-17T07:17:08.639808","CLASSIFICATION_TYPE":"U","MEAN_MOTION":14.96896118,"ECCENTRICITY":0.00070164,"INCLINATION":97.8513,"RA_OF_ASC_NODE":329.5934,"ARG_OF_PERICENTER":247.1533,"MEAN_ANOMALY":112.8948,"EPHEMERIS_TYPE":0,"NORAD_CAT_ID":59108,"ELEMENT_SET_NO":999,"REV_AT_EPOCH":12914,"BSTAR":0.000068888054,"MEAN_MOTION_DOT":0.00000731,"MEAN_MOTION_DDOT":0},{"OBJECT_NAME":"BRO-14","OBJECT_ID":"2024-149CM","EPOCH":"2026-07-16T16:30:52.192512","CLASSIFICATION_TYPE":"U","MEAN_MOTION":14.96238845,"ECCENTRICITY":0.00066062,"INCLINATION":97.6864,"RA_OF_ASC_NODE":272.9353,"ARG_OF_PERICENTER":13.7779,"MEAN_ANOMALY":346.3621,"EPHEMERIS_TYPE":0,"NORAD_CAT_ID":60551,"ELEMENT_SET_NO":999,"REV_AT_EPOCH":10440,"BSTAR":0.000093958499,"MEAN_MOTION_DOT":0.00001003,"MEAN_MOTION_DDOT":0},{"OBJECT_NAME":"BRO-15","OBJECT_ID":"2024-149CP","EPOCH":"2026-07-16T17:42:15.618528","CLASSIFICATION_TYPE":"U","MEAN_MOTION":14.96222563,"ECCENTRICITY":0.00076215,"INCLINATION":97.679,"RA_OF_ASC_NODE":272.5582,"ARG_OF_PERICENTER":359.532,"MEAN_ANOMALY":0.5893,"EPHEMERIS_TYPE":0,"NORAD_CAT_ID":60553,"ELEMENT_SET_NO":999,"REV_AT_EPOCH":10442,"BSTAR":0.000036210666,"MEAN_MOTION_DOT":0.00000351,"MEAN_MOTION_DDOT":0},{"OBJECT_NAME":"BRO-16","OBJECT_ID":"2025-009AX","EPOCH":"2026-07-16T18:08:22.013376","CLASSIFICATION_TYPE":"U","MEAN_MOTION":15.24134848,"ECCENTRICITY":0.00023143,"INCLINATION":97.4055,"RA_OF_ASC_NODE":277.8785,"ARG_OF_PERICENTER":151.2331,"MEAN_ANOMALY":208.9035,"EPHEMERIS_TYPE":0,"NORAD_CAT_ID":62654,"ELEMENT_SET_NO":999,"REV_AT_EPOCH":8330,"BSTAR":0.000083524397,"MEAN_MOTION_DOT":0.0000196,"MEAN_MOTION_DDOT":0},{"OBJECT_NAME":"BRO-18","OBJECT_ID":"2025-135Y","EPOCH":"2026-07-17T07:05:03.302304","CLASSIFICATION_TYPE":"U","MEAN_MOTION":15.22182276,"ECCENTRICITY":0.00025467,"INCLINATION":97.4657,"RA_OF_ASC_NODE":313.0977,"ARG_OF_PERICENTER":113.2268,"MEAN_ANOMALY":246.9236,"EPHEMERIS_TYPE":0,"NORAD_CAT_ID":64550,"ELEMENT_SET_NO":999,"REV_AT_EPOCH":5945,"BSTAR":0.000098218262,"MEAN_MOTION_DOT":0.00002184,"MEAN_MOTION_DDOT":0},{"OBJECT_NAME":"BRO-17","OBJECT_ID":"2025-276G","EPOCH":"2026-07-16T17:05:23.487360","CLASSIFICATION_TYPE":"U","MEAN_MOTION":15.18164165,"ECCENTRICITY":0.00051495,"INCLINATION":97.4181,"RA_OF_ASC_NODE":270.2505,"ARG_OF_PERICENTER":252.4974,"MEAN_ANOMALY":107.5697,"EPHEMERIS_TYPE":0,"NORAD_CAT_ID":66672,"ELEMENT_SET_NO":999,"REV_AT_EPOCH":3487,"BSTAR":0.000089385876,"MEAN_MOTION_DOT":0.00001759,"MEAN_MOTION_DDOT":0},{"OBJECT_NAME":"BRO-20","OBJECT_ID":"2025-276J","EPOCH":"2026-07-17T03:34:55.557696","CLASSIFICATION_TYPE":"U","MEAN_MOTION":15.18332077,"ECCENTRICITY":0.00048185,"INCLINATION":97.4161,"RA_OF_ASC_NODE":270.667,"ARG_OF_PERICENTER":253.881,"MEAN_ANOMALY":106.1894,"EPHEMERIS_TYPE":0,"NORAD_CAT_ID":66674,"ELEMENT_SET_NO":999,"REV_AT_EPOCH":3494,"BSTAR":0.000078481687,"MEAN_MOTION_DOT":0.00001544,"MEAN_MOTION_DDOT":0},{"OBJECT_NAME":"BRO-19","OBJECT_ID":"2026-067G","EPOCH":"2026-07-16T19:50:15.187488","CLASSIFICATION_TYPE":"U","MEAN_MOTION":15.18994284,"ECCENTRICITY":0.00026174,"INCLINATION":97.4493,"RA_OF_ASC_NODE":155.863,"ARG_OF_PERICENTER":105.4714,"MEAN_ANOMALY":254.6809,"EPHEMERIS_TYPE":0,"NORAD_CAT_ID":68422,"ELEMENT_SET_NO":999,"REV_AT_EPOCH":1644,"BSTAR":0.000098010451,"MEAN_MOTION_DOT":0.00001982,"MEAN_MOTION_DDOT":0},{"OBJECT_NAME":"BRO-21","OBJECT_ID":"2026-100AD","EPOCH":"2026-07-16T17:15:48.062592","CLASSIFICATION_TYPE":"U","MEAN_MOTION":15.21637914,"ECCENTRICITY":0.00063965,"INCLINATION":97.4004,"RA_OF_ASC_NODE":95.1291,"ARG_OF_PERICENTER":323.2313,"MEAN_ANOMALY":36.8483,"EPHEMERIS_TYPE":0,"NORAD_CAT_ID":69007,"ELEMENT_SET_NO":999,"REV_AT_EPOCH":1129,"BSTAR":0.00017614001,"MEAN_MOTION_DOT":0.00003911,"MEAN_MOTION_DDOT":0},{"OBJECT_NAME":"BRO-22","OBJECT_ID":"2026-132C","EPOCH":"2026-07-17T02:37:06.484512","CLASSIFICATION_TYPE":"U","MEAN_MOTION":14.99812704,"ECCENTRICITY":0.00167583,"INCLINATION":97.6826,"RA_OF_ASC_NODE":261.4049,"ARG_OF_PERICENTER":173.8685,"MEAN_ANOMALY":186.2746,"EPHEMERIS_TYPE":0,"NORAD_CAT_ID":69504,"ELEMENT_SET_NO":999,"REV_AT_EPOCH":526,"BSTAR":0.0001169744,"MEAN_MOTION_DOT":0.00001391,"MEAN_MOTION_DDOT":0}]}
