BRO-1                   
1 44495U 19054A   26198.14149898  .02671863  10186-4  77423-3 0  9994
2 44495  44.9766 106.6168 0011135 229.2884 130.7070 16.26287832384545
BRO-5                   
1 51061U 22002CF  26198.30559707  .00017239  00000+0  32033-3 0  9996
2 51061  97.2981 272.2741 0005608 195.4390 164.6691 15.48959186250912
BRO-6                   
1 52422U 22047AE  26198.25501288  .00027197  00000+0  44190-3 0  9993
2 52422  97.3387 289.9333 0002816 298.3954  61.7015 15.52679955235811
BRO-8                   
1 55011U 23001C   26198.13281198  .00021620  00000+0  37564-3 0  9995
2 55011  97.3180 263.7844 0004669  32.6887 327.4653 15.50831811196846
BRO-11                  
1 58264U 23174J   26198.25033181  .00002753  00000+0  10458-3 0  9998
2 58264  97.3896 274.8216 0012009 101.4199 258.8390 15.27602608149349
BRO-13                  
1 59107U 24043K   26198.31236841  .00001077  00000+0  99655-4 0  9991
2 59107  97.8531 329.4328 0007394 253.7188 106.3220 14.96655434129121
BRO-12                  
1 59108U 24043L   26198.30357222  .00000731  00000+0  68888-4 0  9998
2 59108  97.8513 329.5934 0007016 247.1533 112.8948 14.96896118129145
BRO-14                  
1 60551U 24149CM  26197.68810408  .00001003  00000+0  93958-4 0  9998
2 60551  97.6864 272.9353 0006606  13.7779 346.3621 14.96238845104406
BRO-15                  
1 60553U 24149CP  26197.73768077  .00000351  00000+0  36211-4 0  9994
2 60553  97.6790 272.5582 0007621 359.5320   0.5893 14.96222563104429
BRO-16                  
1 62654U 25009AX  26197.75581034  .00001960  00000+0  83524-4 0  9998
2 62654  97.4055 277.8785 0002314 151.2331 208.9035 15.24134848 83306
BRO-18                  
1 64550U 25135Y   26198.29517711  .00002184  00000+0  98218-4 0  9991
2 64550  97.4657 313.0977 0002546 113.2268 246.9236 15.22182276 59451
BRO-17                  
1 66672U 25276G   26197.71207740  .00001759  00000+0  89386-4 0  9991
2 66672  97.4181 270.2505 0005149 252.4974 107.5697 15.18164165 34877
BRO-20                  
1 66674U 25276J   26198.14925414  .00001544  00000+0  78482-4 0  9993
2 66674  97.4161 270.6670 0004818 253.8810 106.1894 15.18332077 34941
BRO-19                  
1 68422U 26067G   26197.82656467  .00001982  00000+0  98010-4 0  9993
2 68422  97.4493 155.8630 0002617 105.4714 254.6809 15.18994284 16446
BRO-21                  
1 69007U 26100AD  26197.71930628  .00003911  00000+0  17614-3 0  9997
2 69007  97.4004  95.1291 0006396 323.2313  36.8483 15.21637914 11290
BRO-22                  
1 69504U 26132C   26198.10910283  .00001391  00000+0  11697-3 0  9998
2 69504  97.6826 261.4049 0016758 173.8685 186.2746 14.99812704  5267
